[
    {
        "Altitude(m)": 612513.8951971618,
        "Argument of Periapsis(deg)": 0.0,
        "Eccentricity": 0.0,
        "Inclination(deg)": 60.0,
        "Latitude(deg)": -28.13584544325817,
        "Longitude(deg)": 97.91311582659755,
        "Mean Anomaly(deg)": 212.7273,
        "RAAN(deg)": 0.0,
        "Satellite Name": "Test1 13",
        "Satellite Number": 13,
        "Semi-Major Axis(m)": 6980739.136638005,
        "Time(s)": 0
    },
    {
        "Altitude(m)": 612708.262739556,
        "Argument of Periapsis(deg)": 0.00010418945913296404,
        "Eccentricity": 0.0,
        "Inclination(deg)": 60.0,
        "Latitude(deg)": -28.647584604326646,
        "Longitude(deg)": 98.27034582589128,
        "Mean Anomaly(deg)": 213.34740614546183,
        "RAAN(deg)": -0.0004200491397426661,
        "Satellite Name": "Test1 13",
        "Satellite Number": 13,
        "Semi-Major Axis(m)": 6980739.136638005,
        "Time(s)": 10
    }
]